GLOBALSTAR M023         
1 25621U 99004A   25123.88783610 -.00000159  00000+0 -30383-3 0  9998
2 25621  52.0098 188.3351 0009362  29.1689 142.9263 12.62504200210222
GLOBALSTAR M040         
1 25622U 99004B   25124.21163113 -.00000049  00000+0  30643-3 0  9993
2 25622  51.9903 191.4386 0000566 277.5198 116.9547 12.62009550210000
GLOBALSTAR M036         
1 25623U 99004C   25124.09545760  .00000006  00000+0  12984-2 0  9991
2 25623  51.9997 356.5388 0010823 332.2820 195.8457 11.86597145173728
GLOBALSTAR M038         
1 25624U 99004D   25124.45514475 -.00000068  00000+0  22370-3 0  9991
2 25624  51.9961 197.5160 0001442 318.4278  53.6950 12.32526330196949
GLOBALSTAR M022         
1 25649U 99012A   25124.54359287 -.00000029  00000+0  69765-3 0  9991
2 25649  52.0059  49.5417 0002967  82.4136  89.0301 12.02499771171201
GLOBALSTAR M041         
1 25650U 99012B   25124.19957450 -.00000013  00000+0  93375-3 0  9997
2 25650  52.0024 290.5940 0001404 200.4196 159.6585 11.96673844173259
GLOBALSTAR M046         
1 25651U 99012C   25124.15245297 -.00000036  00000+0  57571-3 0  9996
2 25651  52.0083   2.3488 0002242 146.3696  20.6553 12.09408764178681
GLOBALSTAR M037         
1 25652U 99012D   25124.09791574 -.00000071  00000+0  18163-3 0  9997
2 25652  52.0016 318.3316 0002881  92.3098  60.8658 12.62444248205761
